OBJECT_NAME,OBJECT_ID,EPOCH,MEAN_MOTION,ECCENTRICITY,INCLINATION,RA_OF_ASC_NODE,ARG_OF_PERICENTER,MEAN_ANOMALY,EPHEMERIS_TYPE,CLASSIFICATION_TYPE,NORAD_CAT_ID,ELEMENT_SET_NO,REV_AT_EPOCH,BSTAR,MEAN_MOTION_DOT,MEAN_MOTION_DDOT,GROUP
ECHOSTAR 11,2008-035A,2026-05-03T05:53:49.656768,1.00272279,0.00025461,0.8894,84.6257,315.2339,159.9516,0,U,33207,999,5076,0.0,-5e-07,0.0,Active Satellites
SUPERBIRD-C2,2008-038A,2026-05-03T07:04:14.297088,1.00270099,0.00052417,2.2462,81.7969,7.4283,14.0376,0,U,33274,999,10528,0.0,-2.98e-06,0.0,Active Satellites
INMARSAT 4-F3,2008-039A,2026-05-03T05:42:34.388928,1.00271385,0.00030323,4.2567,31.4495,18.156,159.1899,0,U,33278,999,4609,0.0,-1.34e-06,0.0,Active Satellites
HUANJING 1A (HJ-1A),2008-041A,2026-05-03T06:11:26.098080,14.83889053,0.00175012,97.6666,110.8422,288.3646,71.5665,0,U,33320,999,95174,0.00027414321,2.23e-05,0.0,Active Satellites
HUANJING 1B (HJ-1B),2008-041B,2026-05-03T06:35:25.846944,14.83241829,0.00357954,97.6507,114.1639,333.4336,26.5043,0,U,33321,999,95175,0.00025678677,2.07e-05,0.0,Active Satellites
GEOEYE 1,2008-042A,2026-05-03T06:28:13.018368,14.64683266,0.00039753,98.1244,197.7681,184.2849,175.832,0,U,33331,999,94357,0.00010815771,5.28e-06,0.0,Active Satellites
NIMIQ 4,2008-044A,2026-05-03T05:22:44.054400,1.00272804,0.00022387,0.0194,281.9686,101.4936,196.3505,0,U,33373,999,6453,0.0,-2.13e-06,0.0,Active Satellites
GALAXY 19 (G-19),2008-045A,2026-05-03T07:17:18.019392,1.00271814,0.00029214,0.0077,248.8559,156.8203,187.8717,0,U,33376,999,6445,0.0,-1.32e-06,0.0,Active Satellites
THEOS,2008-049A,2026-05-03T07:11:40.377696,14.2012653,0.00013203,98.5603,182.0334,91.3035,268.8293,0,U,33396,999,91159,8.5440678e-05,1.4e-06,0.0,Active Satellites
SHIJIAN-6 03A (SJ-6 03A),2008-053A,2026-05-03T07:48:05.819040,15.1671736,0.00121064,97.8444,155.0944,158.9947,201.1785,0,U,33408,999,95616,0.00026124904,5.057e-05,0.0,Active Satellites
SHIJIAN-6 03B (SJ-6 03B),2008-053B,2026-05-03T07:57:40.641696,15.0418206,0.00190983,97.8594,142.4788,189.0652,171.0231,0,U,33409,999,95600,0.00021642257,2.951e-05,0.0,Active Satellites
COSMO-SKYMED 3,2008-054A,2026-05-03T06:02:44.584224,15.06668877,0.00174063,97.8336,341.0748,61.9554,298.343,0,U,33412,999,95017,0.0002318133,3.385e-05,0.0,Active Satellites
SHIYAN-3 (SY-3),2008-056A,2026-05-03T07:16:35.786208,14.30787548,0.001241,98.6097,150.2787,265.8115,94.165,0,U,33433,999,91238,7.2879349e-05,1.47e-06,0.0,Active Satellites
CHUANGXIN 1-02 (CX-1-02),2008-056B,2026-05-03T07:28:28.814304,14.30144207,0.00130209,98.6167,150.0192,272.9475,87.0217,0,U,33434,999,91220,7.4408358e-05,1.49e-06,0.0,Active Satellites
ASTRA 1M,2008-057A,2026-05-03T06:30:54.993312,1.00269131,0.00041982,0.1807,80.3861,0.3226,257.5847,0,U,33436,999,4528,0.0,1.28e-06,0.0,Active Satellites
YAOGAN-4,2008-061A,2026-05-03T07:16:04.580256,14.83116051,0.00133837,97.9295,57.152,212.1782,147.8616,0,U,33446,999,93901,0.00013346585,1.035e-05,0.0,Active Satellites
EUTELSAT HOTBIRD 13C,2008-065A,2026-05-03T06:11:04.396128,1.00272805,0.00044533,2.836,79.6998,327.2274,216.731,0,U,33459,999,4689,0.0,-2.75e-06,0.0,Active Satellites
GOSAT (IBUKI),2009-002A,2026-05-03T06:35:19.372992,14.67539645,0.00013862,98.0833,234.9303,109.5807,250.5547,0,U,33492,999,92487,0.00010368353,5.4e-06,0.0,Active Satellites
STARS (KUKAI),2009-002G,2026-05-03T06:13:16.370400,14.95439195,0.000733,98.1531,68.7539,329.3168,30.7622,0,U,33498,999,93176,0.00048165082,5.267e-05,0.0,Active Satellites
KKS-1 (KISEKI),2009-002H,2026-05-03T06:06:54.440928,14.83006745,0.00093429,98.1194,44.9894,77.9743,282.2517,0,U,33499,999,92953,0.00019512043,1.531e-05,0.0,Active Satellites
EXPRESS-AM44,2009-007A,2026-05-03T06:22:10.831296,1.00271912,0.00045337,3.3498,78.9259,324.9555,261.8469,0,U,33595,999,5183,0.0,-8.1e-07,0.0,Active Satellites
NSS-9,2009-008A,2026-05-03T06:04:30.465696,1.00270926,0.00024707,1.1464,83.0395,308.3174,104.0047,0,U,33749,999,6307,0.0,7.9e-07,0.0,Active Satellites
TELSTAR 11N,2009-009A,2026-05-03T06:14:41.548704,1.00269441,0.00024463,0.0136,285.1522,113.683,238.4471,0,U,34111,999,4579,0.0,0.0,0.0,Active Satellites
NAVSTAR 63 (USA 203),2009-014A,2026-05-03T04:23:07.249056,2.00554107,0.01442694,54.4901,212.4594,61.5435,300.7615,0,U,34661,999,12538,0.0,1.6e-07,0.0,Active Satellites
WGS F2 (USA 204),2009-017A,2026-05-03T03:18:24.937632,1.00271789,9.224e-05,0.0169,297.9039,281.0911,109.1605,0,U,34713,999,4516,0.0,7.5e-07,0.0,Active Satellites
SES-7 (PROTOSTAR 2),2009-027A,2026-05-03T02:30:14.594112,1.00271452,0.00013628,0.0886,80.2693,269.7886,16.7726,0,U,34941,999,6217,0.0,-3.37e-06,0.0,Active Satellites
MEASAT-3A,2009-032A,2026-05-03T07:21:03.506976,1.00271997,0.00036839,0.0552,65.1334,339.7242,86.6159,0,U,35362,999,758,0.0,-1.03e-06,0.0,Active Satellites
GOES 14,2009-033A,2026-05-03T05:30:23.298048,1.0011805,0.00019972,1.5751,83.5592,327.3366,59.848,0,U,35491,999,614,0.0,-7.2e-07,0.0,Active Satellites
FM-5,2009-034A,2026-05-03T05:20:48.256800,1.00275699,4.882e-05,0.0149,273.5806,31.712,269.8953,0,U,35493,999,4619,0.0,-1.93e-06,0.0,Active Satellites
