ECHOSTAR 11             
1 33207U 08035A   26123.24571362 -.00000050  00000+0  00000+0 0  9999
2 33207   0.8894  84.6257 0002546 315.2339 159.9516  1.00272279 50765
SUPERBIRD-C2            
1 33274U 08038A   26123.29460992 -.00000298  00000+0  00000+0 0  9991
2 33274   2.2462  81.7969 0005241   7.4283  14.0376  1.00270099105288
INMARSAT 4-F3           
1 33278U 08039A   26123.23789802 -.00000134  00000+0  00000+0 0  9993
2 33278   4.2567  31.4495 0003032  18.1560 159.1899  1.00271385 46092
HUANJING 1A (HJ-1A)     
1 33320U 08041A   26123.25794095  .00002230  00000+0  27414-3 0  9996
2 33320  97.6666 110.8422 0017501 288.3646  71.5665 14.83889053951747
HUANJING 1B (HJ-1B)     
1 33321U 08041B   26123.27460471  .00002070  00000+0  25679-3 0  9990
2 33321  97.6507 114.1639 0035795 333.4336  26.5043 14.83241829951756
GEOEYE 1                
1 33331U 08042A   26123.26959512  .00000528  00000+0  10816-3 0  9993
2 33331  98.1244 197.7681 0003975 184.2849 175.8320 14.64683266943572
NIMIQ 4                 
1 33373U 08044A   26123.22412100 -.00000213  00000+0  00000+0 0  9996
2 33373   0.0194 281.9686 0002238 101.4936 196.3505  1.00272804 64535
GALAXY 19 (G-19)        
1 33376U 08045A   26123.30368078 -.00000132  00000+0  00000+0 0  9993
2 33376   0.0077 248.8559 0002921 156.8203 187.8717  1.00271814 64450
THEOS                   
1 33396U 08049A   26123.29977289  .00000140  00000+0  85441-4 0  9992
2 33396  98.5603 182.0334 0001320  91.3035 268.8293 14.20126530911592
SHIJIAN-6 03A (SJ-6 03A)
1 33408U 08053A   26123.32506735  .00005057  00000+0  26125-3 0  9994
2 33408  97.8444 155.0944 0012106 158.9947 201.1785 15.16717360956165
SHIJIAN-6 03B (SJ-6 03B)
1 33409U 08053B   26123.33172039  .00002951  00000+0  21642-3 0  9991
2 33409  97.8594 142.4788 0019098 189.0652 171.0231 15.04182060956007
COSMO-SKYMED 3          
1 33412U 08054A   26123.25190491  .00003385  00000+0  23181-3 0  9991
2 33412  97.8336 341.0748 0017406  61.9554 298.3430 15.06668877950171
SHIYAN-3 (SY-3)         
1 33433U 08056A   26123.30319197  .00000147  00000+0  72879-4 0  9990
2 33433  98.6097 150.2787 0012410 265.8115  94.1650 14.30787548912388
CHUANGXIN 1-02 (CX-1-02)
1 33434U 08056B   26123.31144461  .00000149  00000+0  74408-4 0  9994
2 33434  98.6167 150.0192 0013020 272.9475  87.0217 14.30144207912201
ASTRA 1M                
1 33436U 08057A   26123.27146983  .00000128  00000+0  00000+0 0  9992
2 33436   0.1807  80.3861 0004198   0.3226 257.5847  1.00269131 45288
YAOGAN-4                
1 33446U 08061A   26123.30283079  .00001035  00000+0  13347-3 0  9990
2 33446  97.9295  57.1520 0013383 212.1782 147.8616 14.83116051939019
EUTELSAT HOTBIRD 13C    
1 33459U 08065A   26123.25768977 -.00000275  00000+0  00000+0 0  9991
2 33459   2.8360  79.6998 0004453 327.2274 216.7310  1.00272805 46898
GOSAT (IBUKI)           
1 33492U 09002A   26123.27452978  .00000540  00000+0  10368-3 0  9999
2 33492  98.0833 234.9303 0001386 109.5807 250.5547 14.67539645924874
STARS (KUKAI)           
1 33498U 09002G   26123.25921725  .00005267  00000+0  48165-3 0  9991
2 33498  98.1531  68.7539 0007330 329.3168  30.7622 14.95439195931765
KKS-1 (KISEKI)          
1 33499U 09002H   26123.25479677  .00001531  00000+0  19512-3 0  9990
2 33499  98.1194  44.9894 0009342  77.9743 282.2517 14.83006745929538
EXPRESS-AM44            
1 33595U 09007A   26123.26540314 -.00000081  00000+0  00000+0 0  9998
2 33595   3.3498  78.9259 0004533 324.9555 261.8469  1.00271912 51838
NSS-9                   
1 33749U 09008A   26123.25313039  .00000079  00000+0  00000+0 0  9997
2 33749   1.1464  83.0395 0002470 308.3174 104.0047  1.00270926 63070
TELSTAR 11N             
1 34111U 09009A   26123.26020311  .00000000  00000+0  00000+0 0  9995
2 34111   0.0136 285.1522 0002446 113.6830 238.4471  1.00269441 45796
NAVSTAR 63 (USA 203)    
1 34661U 09014A   26123.18272279  .00000016  00000+0  00000+0 0  9991
2 34661  54.4901 212.4594 0144269  61.5435 300.7615  2.00554107125387
WGS F2 (USA 204)        
1 34713U 09017A   26123.13778863  .00000075  00000+0  00000+0 0  9992
2 34713   0.0169 297.9039 0000922 281.0911 109.1605  1.00271789 45163
SES-7 (PROTOSTAR 2)     
1 34941U 09027A   26123.10433558 -.00000337  00000+0  00000+0 0  9994
2 34941   0.0886  80.2693 0001362 269.7886  16.7726  1.00271452 62178
MEASAT-3A               
1 35362U 09032A   26123.30629059 -.00000103  00000+0  00000+0 0  9994
2 35362   0.0552  65.1334 0003683 339.7242  86.6159  1.00271997  7586
GOES 14                 
1 35491U 09033A   26123.22943632 -.00000072  00000+0  00000+0 0  9990
2 35491   1.5751  83.5592 0001997 327.3366  59.8480  1.00118050  6142
FM-5                    
1 35493U 09034A   26123.22278075 -.00000193  00000+0  00000+0 0  9999
2 35493   0.0149 273.5806 0000488  31.7120 269.8953  1.00275699 46196
